{
    "links": {
        "self": "http://www.neowsapp.com/rest/v1/neo/3548893?api_key=iIulBulltgU6a56xZRHN4H3l9WmuAYTsLGpBGhQ2"
    },
    "id": "3548893",
    "neo_reference_id": "3548893",
    "name": "(2010 TO55)",
    "designation": "2010 TO55",
    "nasa_jpl_url": "http://ssd.jpl.nasa.gov/sbdb.cgi?sstr=3548893",
    "absolute_magnitude_h": 26.5,
    "estimated_diameter": {
        "kilometers": {
            "estimated_diameter_min": 0.0133215567,
            "estimated_diameter_max": 0.0297879063
        },
        "meters": {
            "estimated_diameter_min": 13.3215566698,
            "estimated_diameter_max": 29.7879062798
        },
        "miles": {
            "estimated_diameter_min": 0.008277629,
            "estimated_diameter_max": 0.0185093411
        },
        "feet": {
            "estimated_diameter_min": 43.7058959846,
            "estimated_diameter_max": 97.7293544391
        }
    },
    "is_potentially_hazardous_asteroid": false,
    "close_approach_data": [
        {
            "close_approach_date": "1997-07-20",
            "close_approach_date_full": "1997-Jul-20 18:05",
            "epoch_date_close_approach": 869421900000,
            "relative_velocity": {
                "kilometers_per_second": "18.767491021",
                "kilometers_per_hour": "67562.967675753",
                "miles_per_hour": "41981.00066497"
            },
            "miss_distance": {
                "astronomical": "0.4168722661",
                "lunar": "162.1633115129",
                "kilometers": "62363203.070633207",
                "miles": "38750697.4943719766"
            },
            "orbiting_body": "Earth"
        },
        {
            "close_approach_date": "2010-10-10",
            "close_approach_date_full": "2010-Oct-10 13:59",
            "epoch_date_close_approach": 1286719140000,
            "relative_velocity": {
                "kilometers_per_second": "7.38978934",
                "kilometers_per_hour": "26603.2416238588",
                "miles_per_hour": "16530.2197745583"
            },
            "miss_distance": {
                "astronomical": "0.007393119",
                "lunar": "2.875923291",
                "kilometers": "1105994.85505653",
                "miles": "687233.335498914"
            },
            "orbiting_body": "Moon"
        },
        {
            "close_approach_date": "2010-10-10",
            "close_approach_date_full": "2010-Oct-10 22:41",
            "epoch_date_close_approach": 1286750460000,
            "relative_velocity": {
                "kilometers_per_second": "6.9393185913",
                "kilometers_per_hour": "24981.5469287874",
                "miles_per_hour": "15522.5617569457"
            },
            "miss_distance": {
                "astronomical": "0.0060094768",
                "lunar": "2.3376864752",
                "kilometers": "899004.929094416",
                "miles": "558615.7595823008"
            },
            "orbiting_body": "Earth"
        },
        {
            "close_approach_date": "2137-11-16",
            "close_approach_date_full": "2137-Nov-16 13:43",
            "epoch_date_close_approach": 5297665380000,
            "relative_velocity": {
                "kilometers_per_second": "16.1722722789",
                "kilometers_per_hour": "58220.180204207",
                "miles_per_hour": "36175.7558607752"
            },
            "miss_distance": {
                "astronomical": "0.3166256712",
                "lunar": "123.1673860968",
                "kilometers": "47366525.998840344",
                "miles": "29432194.4666869872"
            },
            "orbiting_body": "Earth"
        }
    ],
    "orbital_data": {
        "orbit_id": "10",
        "orbit_determination_date": "2017-04-06 08:56:16",
        "first_observation_date": "2010-10-13",
        "last_observation_date": "2010-10-20",
        "data_arc_in_days": 7,
        "observations_used": 53,
        "orbit_uncertainty": "7",
        "minimum_orbit_intersection": ".00652223",
        "jupiter_tisserand_invariant": "4.117",
        "epoch_osculation": "2459000.5",
        "eccentricity": ".4119701544191921",
        "semi_major_axis": "1.687978987677787",
        "inclination": "4.944504656293629",
        "ascending_node_longitude": "199.5759511294003",
        "orbital_period": "801.0303681112239",
        "perihelion_distance": ".9925820234678178",
        "perihelion_argument": "161.8642385367956",
        "aphelion_distance": "2.383375951887757",
        "perihelion_time": "2458671.194196832391",
        "mean_anomaly": "147.9969971923443",
        "mean_motion": ".4494211634558325",
        "equinox": "J2000",
        "orbit_class": {
            "orbit_class_type": "APO",
            "orbit_class_description": "Near-Earth asteroid orbits which cross the Earth’s orbit similar to that of 1862 Apollo",
            "orbit_class_range": "a (semi-major axis) > 1.0 AU; q (perihelion) < 1.017 AU"
        }
    },
    "is_sentry_object": false
}